id,name,latitude,longitude,address,city,state,postcode,country,power_kw,connector_types,access_type,operator,network,status
3040,INTERPARK,41.877804,-87.629911,318 S Federal St,Chicago,IL,60604,,3.7,,Unknown,Unknown,Unknown,Unknown
3605,InterPark - South Loop Self-Park Garage,41.87741852,-87.63001251,318 S Federal St,Chicago,IL,60604,,0.0,,Unknown,Unknown,Unknown,Unknown
3463,InterPark - South Loop Self-Park Garage,41.87741852,-87.63001251,318 S Federal St,Chicago,IL,60604,,0.0,,Unknown,Unknown,Unknown,Unknown
246864,175 W JACKSON 175 W JACKSON,41.877872,-87.6332,175 Jackson Blvd,Chicago,IL,60604,,3.7,,Unknown,Unknown,Unknown,Unknown
28682,LAZ PARKING LLC,41.8807571,-87.6291122,30 W Monroe St,Chicago,IL,60603,,3.7,,Unknown,Unknown,Unknown,Unknown
2972,INTERPARK,41.879396,-87.626578,17 E Adams St,Chicago,IL,60603,,3.7,,Unknown,Unknown,Unknown,Unknown
228337,425 S. FIN PLAC 440LASALLE,41.876306,-87.632975,425 S Financial Pl,Chicago,IL,60605,,3.7,,Unknown,Unknown,Unknown,Unknown
269903,Inland Steel Building Garage,41.88124376024821,-87.62923300266266,53 S. Dearborn St.,Chicago,IL,60603,,3.7,,Unknown,Unknown,Unknown,Unknown
246863,INTERPARK 314 S WELLS 1,41.877528,-87.634217,314 S Wells St,Chicago,IL,60606,,3.7,,Unknown,Unknown,Unknown,Unknown
159883,Tower Self Park,41.8790805,-87.63455515,211 West Adams,Chicago,IL,60606,,3.7,,Unknown,Unknown,Unknown,Unknown
67461,Grant Park South - Tesla,41.8774374,-87.6242333,325 S Michigan Ave,Chicago,IL,60604,,6.0,,Unknown,Unknown,Unknown,Unknown
228346,Parking Garage - 70 West Madison - Tesla Destination,41.882312,-87.630943,11 N Clark St,Chicago,IL,60602,,3.7,,Unknown,Unknown,Unknown,Unknown
142883,PARKING GARAGE 111SW STATION 2,41.880164,-87.636483,111 S Wacker Dr,Chicago,IL,60606,,3.7,,Unknown,Unknown,Unknown,Unknown
142884,IRVINE  CO  OFC 71SW L1 09-10,41.880947,-87.636038,71 S Wacker Dr,Chicago,IL,60606,,3.7,,Unknown,Unknown,Unknown,Unknown
142877,THE COOPER,41.87309,-87.633797,720 S Wells St,Chicago,IL,60699,,3.7,,Unknown,Unknown,Unknown,Unknown
81366,Grant Park North,41.882267,-87.624325,25 N Michigan Ave,Chicago,IL,60602,,6.0,,Unknown,Unknown,Unknown,Unknown
246869,INTERPARK 217WASHINGTON 3,41.883001,-87.634317,219 W Washington St,Chicago,IL,60606,,3.7,,Unknown,Unknown,Unknown,Unknown
246867,ONE SOUTH WACKE OSW STATION #1,41.881597,-87.636514,1 S Wacker Dr,Chicago,IL,60606,,3.7,,Unknown,Unknown,Unknown,Unknown
246856,THE COOPER GATEWAY,41.87256,-87.633911,720 S Wells St,Chicago,IL,60607,,3.7,,Unknown,Unknown,Unknown,Unknown
2975,INTERPARK,41.8834035,-87.635081,230 W Washington St,Chicago,IL,60606,,3.7,,Unknown,Unknown,Unknown,Unknown
142876,The Atlantic Condominium Association,41.87167,-87.626889,"270 17Th Street, Nw",Atlanta,GA,30363,,3.0,,Unknown,Unknown,Unknown,Unknown
228334,ABM OLD POST OFFICE,41.875714,-87.638725,404 W Harrison St,Chicago,IL,60607,,3.7,,Unknown,Unknown,Unknown,Unknown
2976,INTERPARK,41.884864,-87.627044,20 E Randolph St,Chicago,IL,60601,,3.7,,Unknown,Unknown,Unknown,Unknown
246868,110 UPPERWACKER STATION 2,41.882767,-87.637283,110 N Upper Wacker Dr,Chicago,IL,60606,,3.7,,Unknown,Unknown,Unknown,Unknown
3606,Theatre District Self-Park Garage - InterPark,41.8854599,-87.62924957,181 N Dearborn St,Chicago,IL,60601,,0.0,,Unknown,Unknown,Unknown,Unknown
3464,Theatre District Self-Park Garage - InterPark,41.8854599,-87.62924957,181 N Dearborn St,Chicago,IL,60601,,0.0,,Unknown,Unknown,Unknown,Unknown
246876,Government Center Self Park,41.8856135,-87.63075645,181 North Clark,Chicago,IL,60601,,3.7,,Unknown,Unknown,Unknown,Unknown
2978,INTERPARK,41.8852234,-87.6337509,177 N Wells St,Chicago,IL,60606,,3.7,,Unknown,Unknown,Unknown,Unknown
82280,Millennium Parking Garage,41.881747,-87.620555,5 S Columbus DR,Chicago,IL,60601,,16.0,,Unknown,Unknown,Unknown,Unknown
246877,INTERPARK 200 N CLARK 2,41.885939,-87.631256,200 N Clark St,Chicago,IL,60601,,3.7,,Unknown,Unknown,Unknown,Unknown
246871,110 UPPERWACKER STATION 3,41.883759,-87.637353,110 N Upper Wacker Dr,Chicago,IL,60606,,3.7,,Unknown,Unknown,Unknown,Unknown
7749,203 N LaSalle Blvd,41.88591003,-87.63202667,203 N LaSalle Blvd,Chicago,Illinois,60601,,0.0,,Unknown,Unknown,Unknown,Unknown
82307,Millennium Lakeside Garage,41.882094,-87.620496,5 S Columbus DR,Chicago,IL,60603,,16.0,,Unknown,Unknown,Unknown,Unknown
228338,320 S CANAL EV3,41.877104,-87.64055,320 S Canal St,Chicago,IL,60606,,3.7,,Unknown,Unknown,Unknown,Unknown
2939,MILLENNIUM GRGS,41.8824425,-87.6204453,5 S Columbus Dr,Chicago,IL,60601,,1.9,,Unknown,Unknown,Unknown,Unknown
228349,155 N WACKER DR P1,41.884913,-87.636437,155 N Upper Wacker Dr,Chicago,IL,60606,,3.7,,Unknown,Unknown,Unknown,Unknown
246878,"Virgin Hotels, Chicago - LAZ Parking - Tesla Destination",41.88605,-87.626025,203 N Wabash Ave,Chicago,IL,60601,,3.7,,Unknown,Unknown,Unknown,Unknown
246881,One Eleven,41.8865153,-87.6314343,111 W Wacker Dr,Chicago,IL,60601,,3.7,,Unknown,Unknown,Unknown,Unknown
269905,PNC Centre at One North Franklin,41.8857555,-87.6353777,North Franklin Street,Chicago,IL,60606,,3.7,,Unknown,Unknown,Unknown,Unknown
246882,222 N LaSalle Parking Garage,41.886578,-87.632776,222 N La Salle St,Chicago,IL,60601,,3.7,,Unknown,Unknown,Unknown,Unknown
68900,PRUDENTIALPLAZA STATION 01,41.88536,-87.623191,130 E Randolph St,Chicago,IL,60601,,3.7,,Unknown,Unknown,Unknown,Unknown
246879,225 W WACKER 225 W WACKER,41.886307,-87.635075,225 W Wacker Dr,Chicago,IL,60606,,3.7,,Unknown,Unknown,Unknown,Unknown
246875,530207 : Aon Center Parking Garage,41.884798,-87.6215123,200 E. Randolph Street,Chicago,IL,60601,,3.7,,Unknown,Unknown,Unknown,Unknown
228335,TPM AVRA STATION 1,41.87582,-87.64171,1125 W Van Buren Ave,Chicago,IL,60607,,3.7,,Unknown,Unknown,Unknown,Unknown
277450,530206 : 333 West Wacker Drive,41.886053,-87.6359543,333 West Wacker Drive,Chicago,IL,60606,,3.7,,Unknown,Unknown,Unknown,Unknown
269904,300 E. Randolph Unit #3,41.8846651,-87.6199166,300 E. Randolph,Chicago,IL,60601,,3.7,,Unknown,Unknown,Unknown,Unknown
64698,540 W. MADISON,41.882585,-87.641656,540 West Madison St,Chicago,IL,60661,,3.7,,Unknown,Unknown,Unknown,Unknown
246855,ELEVEN THIRTY 1130 S MICHIGAN,41.868618,-87.624626,1130 S Michigan Ave,Chicago,IL,60605,,3.7,,Unknown,Unknown,Unknown,Unknown
246870,540 W. MADISON LL1 - 3,41.883025,-87.642101,540 West Madison St,Chicago,IL,60661,,3.7,,Unknown,Unknown,Unknown,Unknown
142875,ELEVEN40,41.867945,-87.626037,1140 S Wabash Ave,Chicago,IL,60605,,3.7,,Unknown,Unknown,Unknown,Unknown
7746,225 N Columbus Dr,41.88625336,-87.6204071,225 N Columbus Dr,Chicago,Illinois,60601,,0.0,,Unknown,Unknown,Unknown,Unknown
246884,PRUDENTIALPLAZA STATION 02,41.887424,-87.622235,310 N Stetson Ave,Chicago,IL,60601,,3.7,,Unknown,Unknown,Unknown,Unknown
142888,Trump International Hotel & Tower Chicago,41.888835,-87.626658,401 N Wabash Avenue,Chicago,IL,60611,,3.7,,Unknown,Unknown,Unknown,Unknown
128063,Greenway Parking Garage,41.889236,-87.630247,60 W Kinzie,Chicago,Illinois,60654,,16.0,,Unknown,Unknown,Unknown,Unknown
246886,EnV Chicago,41.8889472,-87.6336346,161 W Kinzie St,Chicago,IL,60654,,3.7,,Unknown,Unknown,Unknown,Unknown
246872,PARKING GARAGE GARAGE LEVEL 1,41.883868,-87.642736,118 N Jefferson St,Chicago,IL,60661,,3.7,,Unknown,Unknown,Unknown,Unknown
28687,3RD FLOOR GREENWAY-3,41.889356,-87.630403,60 W Kinzie St,Chicago,IL,60661,,3.7,,Unknown,Unknown,Unknown,Unknown
92855,"Chicago, IL - North Columbus Drive (Pay to Park)",41.88651,-87.61972,225 North Columbus Drive,Chicago,IL,60601-7910,,150.0,,Unknown,Unknown,Unknown,Unknown
246853,Jewel Osco #3345 Roosevelt and Wabash,41.867041,-87.6262505,1224 South Wabash,Chicago,IL,60605,,3.7,,Unknown,Unknown,Unknown,Unknown
29887,400 E. Randolph,41.88368607,-87.61616516,400 E. Randolph,Chicago,Illinois,60601,,0.0,,Unknown,Unknown,Unknown,Unknown
99718,"Chicago, Il - South Canal Street Supercharger",41.869126,-87.639971,1100 South Canal Street,Chicago,IL,60607,,72.0,,Unknown,Unknown,Unknown,Unknown
9142,1101 S Canal St,41.86839294,-87.63871002,1101 S Canal St,Chicago,Illinois,60607,,0.0,,Unknown,Unknown,Unknown,Unknown
246854,Whole Foods - Canal St,41.86809,-87.638211,1101 S Canal St,Chicago,IL,60607,,3.7,,Unknown,Unknown,Unknown,Unknown
228358,LEFT BANK CS STATION 1,41.887215,-87.640641,300 N Canal St,Chicago,IL,60606,,3.7,,Unknown,Unknown,Unknown,Unknown
102907,Hubbard 221 Apartments,41.889972,-87.634711,221 W Hubbard Street,Chicago,IL,60654,,3.7,,Unknown,Unknown,Unknown,Unknown
228366,401NMAPARKING 401 N MICHIGAN,41.889778,-87.623525,150 E Lower North Water St,Chicago,IL,60611,,3.7,,Unknown,Unknown,Unknown,Unknown
7754,111 S Halsted,41.879623,-87.646791,111 S Halsted,Chicago,Illinois,60661,,0.0,,Unknown,Unknown,Unknown,Unknown
277452,530208 : University of Chicago Booth School of Business - Gleacher Center,41.8896871,-87.6222251,450 North Cityfront Plaza Drive,Chicago,IL,60611,,3.7,,Unknown,Unknown,Unknown,Unknown
142874,OMPE ONE MUSEUM PARK,41.866571,-87.621756,1201 S Prairie Ave,Chicago,IL,60605,,3.7,,Unknown,Unknown,Unknown,Unknown
246866,"Walgreens at 111 S Halsted St, Chicago",41.880205,-87.6470495,111 S Halsted St,Chicago,IL,60661,,3.7,,Unknown,Unknown,Unknown,Unknown
246889,B3 LEVEL PARK B3 PARKING,41.889535,-87.620768,284 E North Water St,Chicago,IL,60611,,3.7,,Unknown,Unknown,Unknown,Unknown
246852,"Walgreens at 501 W Roosevelt Rd, Chicago",41.86692,-87.639553,501 W Roosevelt Rd,Chicago,IL,60607,,3.7,,Unknown,Unknown,Unknown,Unknown
246890,The Shops at North Bridge Rush St,41.8911105,-87.625614,520 N Michigan Ave,Chicago,IL,60611,,3.7,,Unknown,Unknown,Unknown,Unknown
28688,HUBBARD CHARGE,41.89035,-87.638405,360 W Hubbard St,Chicago,IL,60654,,3.7,,Unknown,Unknown,Unknown,Unknown
269906,540 E Lower Wacker,41.887439,-87.6160571,540 East Lower Wacker Drive,Chicago,IL,60601,,3.7,,Unknown,Unknown,Unknown,Unknown
246893,The Shops at North Bridge Grant St,41.891844,-87.626446,520 N Michigan Ave,Chicago,IL,60611,,3.7,,Unknown,Unknown,Unknown,Unknown
246888,Cityfront Place Garage - Floor 2 Right,41.8891899,-87.6181012,400 N. McClurg Court,Chicago,IL,60611,,3.7,,Unknown,Unknown,Unknown,Unknown
81723,Loews Chicago Hotel,41.889755,-87.618659,455 N Park DR,Chicago,IL,60611,,8.0,,Unknown,Unknown,Unknown,Unknown
159885,BUCK MANAGEMENT LEVEL 2 327,41.880655,-87.648861,845 W Madison,Chicago,IL,60607,,3.7,,Unknown,Unknown,Unknown,Unknown
159887,BUCK MANAGEMENT LEVEL 1 NORTH,41.880735,-87.648861,845 W Madison St,Chicago,IL,60607,,3.7,,Unknown,Unknown,Unknown,Unknown
40335,"CFP II, LLC 206",41.891113,-87.620957,240 E Illinois St,Chicago,IL,60611,,3.7,,Unknown,Unknown,Unknown,Unknown
246895,McDonalds 6676,41.892786,-87.631728,600 N Clark,Chicago,IL,60610,,3.7,,Unknown,Unknown,Unknown,Unknown
29884,760 W Taylor St,41.86981201,-87.64645386,760 W Taylor St,Chicago,Illinois,60607,,0.0,,Unknown,Unknown,Unknown,Unknown
2980,INTERPARK 50 EAST OHIO 2,41.892757,-87.626038,50 E Ohio St,Chicago,IL,60611,,3.7,,Unknown,Unknown,Unknown,Unknown
7748,50 E Ohio St,41.89275742,-87.6260376,50 E Ohio St,Chicago,Illinois,60611,,0.0,,Unknown,Unknown,Unknown,Unknown
282772,GRANDOHIO CONDO STATION 1,41.891997,-87.621655,211 East Ohio Street,Chicago,IL,60611,,3.7,,Unknown,Unknown,Unknown,Unknown
28678,Walsh Construction,41.87757111,-87.65041351,307 S Sangamon,Chicago,IL,60607,,3.7,,Unknown,Unknown,Unknown,Unknown
20947,640 N LASALLE,41.8935938,-87.632785,640 N LaSalle St,Chicago,IL,60290,,3.7,,Unknown,Unknown,Unknown,Unknown
81846,AC Hotel Chicago Downtown,41.893499,-87.625498,630 N Rush St,Chicago,IL,60611,,14.0,,Unknown,Unknown,Unknown,Unknown
94977,640 N Lasalle Parking Garage,41.8936252,-87.6334239,640 N Lasalle St,Chicago,Illinois,60654,,16.0,,Unknown,Unknown,Unknown,Unknown
29888,614 N St Clair St,41.893147,-87.623135,614 N St Clair St,Chicago,Illinois,60611,,0.0,,Unknown,Unknown,Unknown,Unknown
228355,THOR816WFULTON STATION 1,41.88694,-87.64766,800 W Fulton Market,Chicago,IL,60607,,3.7,,Unknown,Unknown,Unknown,Unknown
277445,UIC Parking Services Lot 9,41.8748062,-87.6507875,501 South Morgan Street,Chicago,IL,60612,,3.7,,Unknown,Unknown,Unknown,Unknown
228347,Union West,41.882764,-87.651188,939 W Washington Blvd,Chicago,IL,60607,,3.7,,Unknown,Unknown,Unknown,Unknown
246891,One Bennett Park,41.891466,-87.616338,456 E Illinois St,Chicago,IL,60611,,3.7,,Unknown,Unknown,Unknown,Unknown
246894,MOMENT MOMENT 1,41.892047,-87.617241,545 N McClurg Ct,Chicago,IL,60611,,3.7,,Unknown,Unknown,Unknown,Unknown
246896,PARKING B LOT B FLOOR9 #3,41.89356,-87.620889,240 E Ontario St,Chicago,IL,60611,,3.7,,Unknown,Unknown,Unknown,Unknown
29890,30 W Huron St,41.89500046,-87.62918091,30 W Huron St,Chicago,Illinois,60654,,0.0,,Unknown,Unknown,Unknown,Unknown
246897,PARKING B LOT B FLOOR8 #3,41.89369,-87.620964,259 E Erie St,Chicago,IL,60611,,3.7,,Unknown,Unknown,Unknown,Unknown
72618,Whole Foods - West Huron,41.8950201,-87.6290687,"30 West Huron St. Chicago, IL",Chicago,ILLINOIS,60654,,50.0,,Unknown,Unknown,Unknown,Unknown
