id,name,latitude,longitude,address,city,state,postcode,country,power_kw,connector_types,access_type,operator,network,status
277159,Heritage Trinity Commons SPE LLC,40.7127753,-74.0059728,PO Box 30907,New York,NY,10087,,3.7,,Unknown,Unknown,Unknown,Unknown
294558,10 Reade St,40.713898,-74.00434,10 Reade St,New York,NY,10007,,3.7,,Unknown,Unknown,Unknown,Unknown
90360,Rapidpark 25-27 Beekman Street,40.710786,-74.006017,25-27 Beekman St,New York,New York,10038,,16.0,,Unknown,Unknown,Unknown,Unknown
142405,Environmental Protection Agency,40.714723,-74.005143,290 Broadway,New York,NY,10007,,3.7,,Unknown,Unknown,Unknown,Unknown
12933,25 Beekman St,40.71063614,-74.00619507,25 Beekman St,Manhattan,New York,10038,,0.0,,Unknown,Unknown,Unknown,Unknown
100951,Icon Parking 70 Gold Street,40.710019,-74.004385,80 Gold St,New York,New York,10038,,8.0,,Unknown,Unknown,Unknown,Unknown
105395,Icon Parking 54 Murray Street,40.714266,-74.009921,54 Murray St,New York,New York,10007,,10.0,,Unknown,Unknown,Unknown,Unknown
62139,BEAM CHARGING,40.7142163,-74.0106122,75 Park Place,New York,NY,10007,,3.0,,Unknown,Unknown,Unknown,Unknown
226804,170 Park Row,40.713246,-74.001,170 Park Row,New York,NY,10013,,3.7,,Unknown,Unknown,Unknown,Unknown
97819,MPG 121 Reade Street,40.716268,-74.009491,121 Reade St,New York,New York,10013,,8.0,,Unknown,Unknown,Unknown,Unknown
246276,123 Leonard St,40.7160793,-74.0021648,123 Leonard S,New York,NY,10013,,3.7,,Unknown,Unknown,Unknown,Unknown
226808,IPark-170 Park Row,40.713832,-74.000059,170  Park Row,New York,NY,10038,,3.7,,Unknown,Unknown,Unknown,Unknown
97636,Standard Parking 270 Greenwich,40.715071,-74.012203,270 Greenwich St,New York,New York,10007,,8.0,,Unknown,Unknown,Unknown,Unknown
71521,Icon Parking - Tesla,40.7076664,-74.004679,238 Pearl St,New York,NY,10063,,6.0,,Unknown,Unknown,Unknown,Unknown
82195,Icon Parking 308 Greenwich,40.717686,-74.010613,308 Greenwich St,New York,New York,10013,,8.0,,Unknown,Unknown,Unknown,Unknown
226797,200 Liberty,40.710179,-74.013169,200 Liberty St,New York,NY,10006,,3.7,,Unknown,Unknown,Unknown,Unknown
97646,Central Parking 200 Chambers,40.716256,-74.012543,200 Chambers St,New York,New York,10007,,8.0,,Unknown,Unknown,Unknown,Unknown
67359,ParkIt - Tesla,40.7199913,-74.0074134,27 N Moore St,New York,NY,10013,,8.0,,Unknown,Unknown,Unknown,Unknown
246274,250 Vesey,40.714113,-74.01581,250 Vesey St,New York,NY,10281,,3.7,,Unknown,Unknown,Unknown,Unknown
81794,Icon Parking Wall Park,40.705922,-74.010175,39 Exchange PL,New York,New York,10005,,16.0,,Unknown,Unknown,Unknown,Unknown
90713,Icon 376 Greenwich Street,40.719825,-74.010137,376 Greenwich St,New York,New York,10013,,16.0,,Unknown,Unknown,Unknown,Unknown
67354,Andaz Wall Street - Tesla,40.7051404,-74.0079954,75 Wall St,New York,NY,10005,,8.0,,Unknown,Unknown,Unknown,Unknown
246279,Tribeca Green,40.71695,-74.014948,325 North End Ave,New York,NY,10282,,3.7,,Unknown,Unknown,Unknown,Unknown
246278,20RTAC GARAGE TOP,40.716132,-74.015557,211 North End Ave,New York,NY,10282,,3.7,,Unknown,Unknown,Unknown,Unknown
125171,Center Park 250 Albany,40.709803,-74.015771,250 Albany St,Manhattan,New York,10280,,10.0,,Unknown,Unknown,Unknown,Unknown
92561,Standard Parking Gateway Plaza Garage,40.711145,-74.016332,339 South End Ave,New York,New York,10280,,16.0,,Unknown,Unknown,Unknown,Unknown
148619,"Manhattan, Ny - Vesey Street Supercharger",40.7143965,-74.0164439,250 Vesey Street,Manhattan,NY,10080,,72.0,,Unknown,Unknown,Unknown,Unknown
100362,"New York, NY - Mott Street (Valet & Pay to Park)",40.717522,-73.997302,106 Mott Street,New York,NY,10013-4600,,72.0,,Unknown,Unknown,Unknown,Unknown
71522,ALBANESE ORG,40.7151023,-74.0163292,95 North End Ave,New York,NY,10282,,3.0,,Unknown,Unknown,Unknown,Unknown
81767,Ipark Nyc 75 Wall Street,40.704776,-74.008276,75 Wall St,New York,NY,10005,,8.0,,Unknown,Unknown,Unknown,Unknown
90296,Icon Liberty View Parking,40.716079,-74.015929,400 Murray St,New York,New York,10016,,16.0,,Unknown,Unknown,Unknown,Unknown
67358,iPark - Tesla,40.7169064,-73.9964708,44 Elizabeth St,New York,NY,10013,,8.0,,Unknown,Unknown,Unknown,Unknown
140752,Tribeca Park,40.717717,-74.015049,400 Chambers St,New York,NY,10282,,3.7,,Unknown,Unknown,Unknown,Unknown
18343,MP 225 LLC,40.7092248,-74.0161545,225 Rector Pl,New York,NY,10280,,3.0,,Unknown,Unknown,Unknown,Unknown
48234,ParkIt - Tesla,40.7213314,-74.0035293,10 Wooster St,New  York,NY,10013,,8.0,,Unknown,Unknown,Unknown,Unknown
81965,Parkit 10 Wooster St.,40.721658,-74.004402,10 Wooster St,New York,NY,10013,,8.0,,Unknown,Unknown,Unknown,Unknown
82099,Icon Parking 14-26 William Street,40.704514,-74.01074,14-26 William St,New York,New York,10004,,8.0,,Unknown,Unknown,Unknown,Unknown
105370,Icon Parking 237 West Thames,40.708165,-74.016641,237 W Thames,New York,New York,10280,,10.0,,Unknown,Unknown,Unknown,Unknown
90274,City Parking RL Mercer Street,40.721437,-74.001238,40 Mercer St,New York,New York,10025,,13.0,,Unknown,Unknown,Unknown,Unknown
92684,GGMC the Cove,40.707738,-74.016845,99 Battery PL,New York,New York,10280,,16.0,,Unknown,Unknown,Unknown,Unknown
7977,55 Water St,40.70325851,-74.0096283,55 Water St,Manhattan,New York,10041,,0.0,,Unknown,Unknown,Unknown,Unknown
48233,Quik Park - Tesla,40.7070972,-74.0168867,70 Little W St,New York,NY,10280,,16.0,,Unknown,Unknown,Unknown,Unknown
246271,Quik Park Little West LLC - Tesla Destination,40.70663,-74.016916,70 Little West St,New York,NY,10280,,3.7,,Unknown,Unknown,Unknown,Unknown
100573,GGMC Parking Battery Place,40.706965,-74.017971,50 Battery PL,New York,New York,10280,,8.0,,Unknown,Unknown,Unknown,Unknown
108933,"New York, Ny - 59 Allen Street Supercharger",40.717153,-73.991869,59 Allen Street,Lower Manhattan,NY,95123,,72.0,,Unknown,Unknown,Unknown,Unknown
67360,Quik Park - Tesla,40.7237272,-74.0109856,32 Debrosses St,New York,NY,10013,,8.0,,Unknown,Unknown,Unknown,Unknown
105373,Ipark 59-63 Allen Street,40.717143,-73.991597,59-63 Allen St,New York,New York,10002,,10.0,,Unknown,Unknown,Unknown,Unknown
85883,1 Hotel Brooklyn Bridge,40.701461,-73.995566,60 Furman St,Brooklyn,New York,11201,,8.0,,Unknown,Unknown,Unknown,Unknown
105416,Icon Parking 240 East Broadway,40.714821,-73.987138,188 Clinton St,New York,New York,10002,,10.0,,Unknown,Unknown,Unknown,Unknown
102832,Delancey & Essex Municipal Parking Garage,40.719051,-73.988181,107 Essex St,Manhattan,NY,10002,,150.0,,Unknown,Unknown,Unknown,Unknown
92026,Park Kwik LLC 50 Washington St.,40.702882,-73.990594,45 Main St,Brooklyn,New York,11201,,16.0,,Unknown,Unknown,Unknown,Unknown
7984,413 Grand St,40.71485138,-73.98568726,413 Grand St,New York,New York,10002,,0.0,,Unknown,Unknown,Unknown,Unknown
28398,BEAM CHARGING,40.7284126,-74.0073318,375 Hudson St,Manhattan,NY,10014,,3.0,,Unknown,Unknown,Unknown,Unknown
142421,New York University - Plaza Nursery School,40.7273617,-73.9975331999999,110 Bleecker St,New York,NY,10011,,3.7,,Unknown,Unknown,Unknown,Unknown
105390,Parkright 169 Ludlow Street,40.721713,-73.987533,169 Ludlow St,New York,New York,10012,,10.0,,Unknown,Unknown,Unknown,Unknown
246297,NYU NYU # 1,40.72808,-73.99724,2 Washington Square Village,New York,NY,10012,,3.7,,Unknown,Unknown,Unknown,Unknown
246301,Parkit 575 Washington - Tesla Destination,40.729364,-74.008513,575 Washington St,New York,NY,10014,,3.7,,Unknown,Unknown,Unknown,Unknown
82164,Parkit 221 Thompson Street,40.729234,-73.999013,221 Thompson St,New York,NY,10012,,8.0,,Unknown,Unknown,Unknown,Unknown
105418,Standard Parking 200 Cadman Plaza West,40.698707,-73.992365,75 Henry St,Brooklyn,New York,11221,,10.0,,Unknown,Unknown,Unknown,Unknown
28400,FedEx,40.7303419,-74.0082654,130 Leroy St,New York,NY,10014,,3.7,,Unknown,Unknown,Unknown,Unknown
7986,75 Henry St,40.69868469,-73.99187469,75 Henry St,Brooklyn,New York,11201,,0.0,,Unknown,Unknown,Unknown,Unknown
92283,MPG 100 Jay Street,40.702194,-73.98672,100 Jay St,Brooklyn,New York,10021,,16.0,,Unknown,Unknown,Unknown,Unknown
28401,BEAM CHARGING,40.730485,-74.000728,122 W 3rd St,New York,NY,10012,,3.0,,Unknown,Unknown,Unknown,Unknown
28387,MP 225 LLC,40.7018205,-73.9868238,100 Jay St,New York,NY,11201,,3.0,,Unknown,Unknown,Unknown,Unknown
226780,35 Red Cross Pl,40.699487,-73.989516,35 Red Cross Pl,Brooklyn,NY,11201,,3.7,,Unknown,Unknown,Unknown,Unknown
81909,Parkit 403 Lafayette St.,40.728287,-73.992746,403 Lafayette St,New York,NY,10003,,8.0,,Unknown,Unknown,Unknown,Unknown
246296,"The Standard, East Village - Tesla Destination",40.727797,-73.990746,25 Cooper Street,New York,NY,10004,,3.7,,Unknown,Unknown,Unknown,Unknown
246306,Minetta Garage,40.73137973,-74.0007049,122 West 3rd Street,New York,NY,10012,,3.7,,Unknown,Unknown,Unknown,Unknown
67351,Quik Park - Tesla,40.694155,-73.9998143,4 Joralemon St,Brooklyn,NY,11201,,8.0,,Unknown,Unknown,Unknown,Unknown
263043,Park-it Area Garage - Tesla Destination,40.7156449097173,-73.9808096971768,275 Delancey St,New York,NY,10002,,3.7,,Unknown,Unknown,Unknown,Unknown
62140,Hyatt Regency Jersey City on the Hudson - Tesla,40.7171013,-74.0317368,2 Exchange Pl,Jersey City,NJ,07302,,16.0,,Unknown,Unknown,Unknown,Unknown
246304,Champion Parking 60 E 8th - Tesla Destination,40.730487,-73.993569,60-68 E 8th St,New York,NY,10003,,3.7,,Unknown,Unknown,Unknown,Unknown
28399,CARCHARGING,40.729535,-73.991398,445 Lafayette St,New York,NY,10003,,3.0,,Unknown,Unknown,Unknown,Unknown
246260,Quik Park Brooklyn Bridge LLC - Tesla Destination,40.692941,-74.000298,4 Joralemon St,Brooklyn,NY,11201,,3.7,,Unknown,Unknown,Unknown,Unknown
246281,Hyatt Regency Jersey City on the Hudson - Tesla Destination,40.716966,-74.032769,2 Exchange Pl,Jersey City,NJ,07302,,3.7,,Unknown,Unknown,Unknown,Unknown
67362,Icon Parking - Tesla,40.732296,-73.9960757,11 5th Ave,New York,NY,10003,,8.0,,Unknown,Unknown,Unknown,Unknown
105376,Standard Parking Pierepoint Plaza,40.695115,-73.990993,300 Cadman,Brooklyn,New York,11201,,10.0,,Unknown,Unknown,Unknown,Unknown
81917,GGMC Parking Stewart House Garage (located At 91 E 9th St),40.731257,-73.992101,91 East 9th St,New York,NY,10003,,8.0,,Unknown,Unknown,Unknown,Unknown
67361,GGMC Parking - Tesla,40.7312576,-73.9920918,91 E 9th St,New York,NY,10003,,8.0,,Unknown,Unknown,Unknown,Unknown
246305,GGMC 91 E 9th Street - Tesla Destination,40.730723,-73.990854,91 East 9th Street,New York,NY,10003,,3.7,,Unknown,Unknown,Unknown,Unknown
95532,Icon Parking 150 Charles Street,40.734006,-74.009079,150 Charles St,New York,NY,10014,,8.0,,Unknown,Unknown,Unknown,Unknown
67363,Icon Parking - Tesla,40.7325223,-73.995208,12 E 9th St,New York,NY,10003,,8.0,,Unknown,Unknown,Unknown,Unknown
226839,LaSalle Parking LLS Shumai LLC (220 E 9th St.),40.729495,-73.988375,220 E 9th St,Manhattan,NY,10003,,3.7,,Unknown,Unknown,Unknown,Unknown
48823,Crystal Point Garage,40.7215275250882,-74.0318107,2 2nd Street,Jersey City,NJ,07302,,7.0,,Unknown,Unknown,Unknown,Unknown
115871,Littleman Parking Crystal Point Garage - Tesla Destination,40.721293,-74.03204,2 Second St,Jersey City,NJ,07032,,3.7,,Unknown,Unknown,Unknown,Unknown
294559,10 Exchange Pl. Garage,40.71662150647494,-74.03390856845364,10 Exchange Pl.,Jersey City,NJ,07302,,3.7,,Unknown,Unknown,Unknown,Unknown
90282,Rapidpark 44 State Street,40.692062,-73.99816,44 State St,Brooklyn,New York,11201,,16.0,,Unknown,Unknown,Unknown,Unknown
246286,Veris Residential,40.719128,-74.033226,475 Washington Blvd,Jersey City,NJ,07310,,3.7,,Unknown,Unknown,Unknown,Unknown
246308,Parkright 738 Greenwich Street - Tesla Destination,40.734412,-74.007184,738 Greenwich St,New York,NY,10014,,3.7,,Unknown,Unknown,Unknown,Unknown
142429,GMC Parking - Travelers Garage,40.7343139648,-74.001953125,200  Cabrini Blvd,New York,NY,10033,,3.7,,Unknown,Unknown,Unknown,Unknown
81348,Icon Parking University 10 Parking (entrance on 50 E 10th Street),40.731887,-73.991906,63 E 9th St,New York,New York,10003,,8.0,,Unknown,Unknown,Unknown,Unknown
246309,Travelers Parking,40.73491,-74.001634,160 W 10th Street,New York,NY,10014,,3.7,,Unknown,Unknown,Unknown,Unknown
71526,Parkright - Tesla,40.735158,-74.007276,738 Greenwich St,New York,NY,10014,,6.0,,Unknown,Unknown,Unknown,Unknown
131493,101 Hudson-Littleman Parking,40.71585,-74.035362,101 Hudson Street,Jersey City,NJ,07311,,10.0,,Unknown,Unknown,Unknown,Unknown
85117,Apple Parking 332 W 11th Street,40.735597,-74.007693,332 W 11th St,New York,New York,10014,,11.0,,Unknown,Unknown,Unknown,Unknown
131458,160 Greene-Littleman Parking,40.718398,-74.035327,135 Greene St,Jersey City,New Jersey,07311,,10.0,,Unknown,Unknown,Unknown,Unknown
81822,Parkit 310 E 11th Street,40.730017,-73.985512,310 E 11th St,New York,New York,10003,,14.0,,Unknown,Unknown,Unknown,Unknown
226842,CHHA2 Garages LLC,40.733934,-73.993118,21 E 12th St,New York,NY,10003,,3.7,,Unknown,Unknown,Unknown,Unknown
246261,Brooklyn Renaissance Plaza,40.693463,-73.988245,335 Adams St,Brooklyn,NY,11201,,3.7,,Unknown,Unknown,Unknown,Unknown
67352,Parkright - Tesla,40.6968521,-73.9828995,257 Gold St,Brooklyn,NY,11201,,8.0,,Unknown,Unknown,Unknown,Unknown
