id,name,latitude,longitude,address,city,state,postcode,country,power_kw,connector_types,access_type,operator,network,status
7008,angle rue Poulet - Barbès,48.856614,2.3522219000000177,angle rue Poulet - Barbès,Paris,,,,0.0,,Unknown,Unknown,Unknown,Unknown
6931,Parking Lobau-Rivoli,48.8560139,2.353280600000062,Rue Lobau,Paris,, 75004,,0.0,,Unknown,Unknown,Unknown,Unknown
60368,Place Saint-Gervais,48.855837,2.35409470000002,4 Place Saint-Gervais,Paris,,75004,,22.0,,Unknown,Unknown,Unknown,Unknown
6977,Place Saint-Gervais autolib,48.8557973,2.35414830000002,Place Saint-Gervais,Paris,,,,0.0,,Unknown,Unknown,Unknown,Unknown
7025,Parking Hôtel de Ville,48.8569839,2.3497155999999677,3 rue de la Tacherie,Paris,,75004,,0.0,,Unknown,Unknown,Unknown,Unknown
198809,Paris | Quai aux Fleurs 23,48.854847,2.3505278,23 Quai aux Fleurs 75004 Paris,,,,,7.0,,Unknown,Unknown,Unknown,Unknown
198838,Paris | Rue Sainte-Croix de la Bretonnerie 37,48.858505,2.3543751,37 Rue Sainte-Croix de la Bretonnerie 75004 Paris,,,,,7.0,,Unknown,Unknown,Unknown,Unknown
7026,Parking St Martin Rivoli,48.8585079,2.3496165999999903,5 rue Pernelle,Paris,,75004,,0.0,,Unknown,Unknown,Unknown,Unknown
198846,Paris | Rue du Temple 36,48.85967,2.3542652,36 Rue du Temple 75004 Paris,,,,,7.0,,Unknown,Unknown,Unknown,Unknown
7024,Parking Notre Dame,48.8545607,2.347677699999963,Rue de la Cité,Paris,,75004,,0.0,,Unknown,Unknown,Unknown,Unknown
198835,Paris | Avenue Victoria 17,48.85788,2.34681,17 Avenue Victoria 75001 Paris,,,,,7.0,,Unknown,Unknown,Unknown,Unknown
198815,Paris | Rue François Miron 80,48.855366,2.3591938,80 Rue François Miron 75004 Paris,,,,,7.0,,Unknown,Unknown,Unknown,Unknown
77520,Quai du Marche Neuf,48.854057,2.34556,4 QUAI DU MARCHE NEUF,Paris,Paris 9,75004,,22.0,,Unknown,Unknown,Unknown,Unknown
6928,Parking Sébastopol,48.8615398,2.3496910999999727," Boulevard de Sébastopol , 43 bis",Paris,, 75001,,0.0,,Unknown,Unknown,Unknown,Unknown
198842,Paris | Rue Bertin Poirée 14,48.85881,2.3449502,14 Rue Bertin Poirée 75001 Paris,,,,,7.0,,Unknown,Unknown,Unknown,Unknown
198862,pompidou,48.861996,2.352638,"31 Rue Beaubourg, 75003 Paris, France",,,,,22.0,,Unknown,Unknown,Unknown,Unknown
198787,Paris | Quai de Béthune 36,48.851254,2.3564553,36 Quai de Béthune 75004 Paris,,,,,7.0,,Unknown,Unknown,Unknown,Unknown
198823,Paris | Rue Malher 13,48.85648,2.361378,13 Rue Malher 75004 Paris,,,,,7.0,,Unknown,Unknown,Unknown,Unknown
198782,SAEMES | PARKING LAGRANGE,48.850723128182764,2.3486904895097536,19 rue Maubert 75005 Paris,,,,,22.0,,Unknown,Unknown,Unknown,Unknown
198777,Paris | Quai de la Tournelle 21,48.850033,2.354431,21 Quai de la Tournelle 75005 Paris,,,,,7.0,,Unknown,Unknown,Unknown,Unknown
198871,Paris | Rue Saint-Martin 204,48.86334,2.3526978,204 Rue Saint-Martin 75003 Paris,,,,,7.0,,Unknown,Unknown,Unknown,Unknown
77519,Rue Saint Jacques,48.85104,2.345493,32 RUE SAINT JACQUES,Paris,Paris 9,75005,,22.0,,Unknown,Unknown,Unknown,Unknown
7023,Parking St Eustache,48.8623474,2.3458559000000605,Forum des halles,Paris,,75001,,0.0,,Unknown,Unknown,Unknown,Unknown
6932,Parking Place Saint-Michel,48.8519137,2.342407099999946,Rue Hautefeuille,Paris,, 75005,,0.0,,Unknown,Unknown,Unknown,Unknown
97772,Relais Christine,48.854369,2.340142,3 Rue Christine,Paris,Paris,75006,,11.0,,Unknown,Unknown,Unknown,Unknown
198803,Paris | Rue Neuve Saint-Pierre 2,48.853573,2.363958,2 Rue Neuve Saint-Pierre 75004 Paris,,,,,7.0,,Unknown,Unknown,Unknown,Unknown
6974,Rue de l'Amiral de Coligny,48.8599749,2.3403485000000046,Rue de l'Amiral de Coligny,Paris,,,,0.0,,Unknown,Unknown,Unknown,Unknown
198780,Paris | Quai Henri IV 44,48.85023,2.3615763,44 Quai Henri IV 75004 Paris,,,,,22.0,,Unknown,Unknown,Unknown,Unknown
77528,Rue de Reaumur,48.864719,2.359043,5 Rue de Reaumur,Paris,Paris 9,75003,,22.0,,Unknown,Unknown,Unknown,Unknown
7027,Parking Ecole de Médecine,48.8512146,2.3403983000000608,21 rue de l'école de Médecine,Paris,,75006,,0.0,,Unknown,Unknown,Unknown,Unknown
198812,Paris | Rue Jacques Callot 5,48.855206,2.337108,5 Rue Jacques Callot 75006 Paris,,,,,7.0,,Unknown,Unknown,Unknown,Unknown
6976,Rue Perrée (Mairie),48.86466840000001,2.361330500000008,Rue Perrée,Paris,,,,0.0,,Unknown,Unknown,Unknown,Unknown
198863,Paris | Rue de Turenne 98,48.86235,2.3648512,98 Rue de Turenne 75003 Paris,,,,,7.0,,Unknown,Unknown,Unknown,Unknown
198843,Paris | Boulevard Beaumarchais 87,48.858967,2.36738,87 Boulevard Beaumarchais 75003 Paris,,,,,7.0,,Unknown,Unknown,Unknown,Unknown
198864,Paris | Rue des Croix des Petits Champs 4,48.862465,2.3393006,4 Rue des Croix des Petits Champs 75001 Paris,,,,,7.0,,Unknown,Unknown,Unknown,Unknown
77510,Rue Etienne Marcel,48.865311,2.343436,44 RUE ETIENNE MARCEL,Paris,Paris 9,75001,,22.0,,Unknown,Unknown,Unknown,Unknown
6978,Place du Panthéon,48.8467002,2.3463884000000235,Place du Panthéon,Paris,,,,0.0,,Unknown,Unknown,Unknown,Unknown
198898,Paris | Rue d'Alexandrie 7,48.868008,2.3508835,7 Rue d'Alexandrie 75002 Paris,,,,,7.0,,Unknown,Unknown,Unknown,Unknown
198736,Paris | Rue Linnée 18,48.845257,2.3548336,18 Rue Linnée 75005 Paris,,,,,3.0,,Unknown,Unknown,Unknown,Unknown
6975,6 rue d'Aboukir,48.86620610000001,2.342473899999959,6 rue d'Aboukir,Paris,,,,0.0,,Unknown,Unknown,Unknown,Unknown
6933,Parking Soufflot-Panthéon,48.8472745,2.3417546000000584,"22, Rue Soufflot",Paris,, 75005,,0.0,,Unknown,Unknown,Unknown,Unknown
198731,Paris | Rue Monge 55,48.84477,2.35242,55 Rue Monge 75005 Paris,,,,,22.0,,Unknown,Unknown,Unknown,Unknown
77561,Place du Panthéon,48.845715,2.345032,17 Place du Panthéon,Paris,Paris 9,75005,,22.0,,Unknown,Unknown,Unknown,Unknown
198897,Paris | Rue Réaumur 116,48.86781,2.34525,116 Rue Réaumur 75002 Paris,,,,,7.0,,Unknown,Unknown,Unknown,Unknown
198728,Paris | Rue Monge 58,48.84443,2.3522773,58 Rue Monge 75005 Paris,,,,,7.0,,Unknown,Unknown,Unknown,Unknown
198881,Paris | Boulevard du Temple 27,48.865097,2.36554,27 Boulevard du Temple 75011 Paris,,,,,22.0,,Unknown,Unknown,Unknown,Unknown
198831,Paris | Boulevard Richard Lenoir 36,48.857258,2.37139,36 Boulevard Richard Lenoir 75011 Paris,,,,,7.0,,Unknown,Unknown,Unknown,Unknown
198895,Paris | Place de la République 17,48.86745,2.3630073,17 Place de la République 75003 Paris,,,,,7.0,,Unknown,Unknown,Unknown,Unknown
198885,Paris | Boulevard Voltaire  8,48.865765,2.3664377,8 Boulevard Voltaire 75011 Paris,,,,,7.0,,Unknown,Unknown,Unknown,Unknown
198764,Paris | Boulevard de la Bastille 20,48.84837,2.367915,20 Boulevard de la Bastille 75012 Paris,,,,,7.0,,Unknown,Unknown,Unknown,Unknown
195666,PARIS - Saint Sulpice n-1,48.851196289,2.333564997,Place Saint-Sulpice - 75006 PARIS,,,,,7.0,,Unknown,Unknown,Unknown,Unknown
198852,Paris | Boulevard Richard Lenoir 63,48.86023,2.3719914,63 Boulevard Richard Lenoir 75011 Paris,,,,,7.0,,Unknown,Unknown,Unknown,Unknown
195669,PARIS - Saint Germain des PrÃÂ©s,48.854099274,2.33178401,Boulevard Saint-Germain - 75006 PARIS,,,,,7.0,,Unknown,Unknown,Unknown,Unknown
198917,Paris | Boulevard Bonne Nouvelle 21,48.8703,2.349722,21 Boulevard Bonne Nouvelle 75002 Paris,,,,,7.0,,Unknown,Unknown,Unknown,Unknown
6930,Parking Bourse,48.8686698,2.3413497000000234,Place de la Bourse,Paris,, 75002,,0.0,,Unknown,Unknown,Unknown,Unknown
198923,Paris | Rue de Metz 6,48.87081,2.354076,6 Rue de Metz 75010 Paris,,,,,7.0,,Unknown,Unknown,Unknown,Unknown
198891,Paris | Avenue de la République 5,48.86661,2.36784,5 Avenue de la République 75011 Paris,,,,,7.0,,Unknown,Unknown,Unknown,Unknown
198817,Paris | Rue du Commandant Lamy 2,48.85579,2.374203,2 Rue du Commandant Lamy 75011 Paris,,,,,7.0,,Unknown,Unknown,Unknown,Unknown
198919,Paris | Rue d'Uzès 1,48.870422,2.3454537,1 Rue d'Uzès 75002 Paris,,,,,7.0,,Unknown,Unknown,Unknown,Unknown
198915,Paris | Rue Pierre Chausson 1,48.87026,2.3600461,1 Rue Pierre Chausson 75010 Paris,,,,,7.0,,Unknown,Unknown,Unknown,Unknown
198875,Paris | Boulevard Richard Lenoir 110,48.864063,2.3713984,110 Boulevard Richard Lenoir 75011 Paris,,,,,7.0,,Unknown,Unknown,Unknown,Unknown
198709,Paris | Rue Pierre Brossolette 1,48.84196,2.347262,1 Rue Pierre Brossolette 75005 Paris,,,,,7.0,,Unknown,Unknown,Unknown,Unknown
198745,Paris | Avenue Ledru Rollin 20,48.84652,2.3692153,20 Avenue Ledru Rollin 75012 Paris,,,,,7.0,,Unknown,Unknown,Unknown,Unknown
198879,Paris | Rue des Pyramides 12,48.86486,2.3329713,12 Rue des Pyramides 75001 Paris,,,,,7.0,,Unknown,Unknown,Unknown,Unknown
6979,76 rue de Rennes,48.8510946,2.3306301000000076,76 rue de Rennes,Paris,,,,0.0,,Unknown,Unknown,Unknown,Unknown
195677,PARIS - Louvre,48.861721039,2.330333948,Avenue du GÃÂ©nÃÂ©ral Lemonnier - 75001 PARIS,,,,,3.7,,Unknown,Unknown,Unknown,Unknown
198890,SARL ALBIN,48.8665157,2.3340766,9 Rue Paul Sabatier 71100 Chalon-sur-Saône,,,,,44.0,,Unknown,Unknown,Unknown,Unknown
198700,Paris | Rue Monge  99,48.841064,2.352048,495 Rue Monge 75005 Paris,,,,,7.0,,Unknown,Unknown,Unknown,Unknown
198876,Paris | Rue Saint Roch 3,48.864292,2.3314855,3 Saint Roch 75001 Paris,,,,,7.0,,Unknown,Unknown,Unknown,Unknown
198710,Paris | Rue Gay-Lussac 66,48.842007,2.3430684,66 Rue Gay-Lussac 75005 Paris,,,,,7.0,,Unknown,Unknown,Unknown,Unknown
198920,Paris | Rue Vivienne 43,48.870564,2.3408933,43 Rue Vivienne 75002 Paris,,,,,7.0,,Unknown,Unknown,Unknown,Unknown
77513,Rue du Bac,48.857124,2.327753,35 Rue du Bac,Paris,Paris 9,75007,,22.0,,Unknown,Unknown,Unknown,Unknown
198900,Paris | Rue Dalayrac 19,48.86818,2.335097,19 Rue Dalayrac 75002 Paris,,,,,7.0,,Unknown,Unknown,Unknown,Unknown
198750,Paris | Rue de Fleurus 2,48.847107,2.332121,2 Rue de Fleurus 75006 Paris,,,,,7.0,,Unknown,Unknown,Unknown,Unknown
195665,PARIS - Faubourg Saint Antoine,48.850849152,2.375396013,Avenue Ledru Rollin - 75012 PARIS,,,,,3.7,,Unknown,Unknown,Unknown,Unknown
6988,42 bd de Magenta,48.8724139,2.3597886000000017,42 boulevard de Magenta,Paris,,,,0.0,,Unknown,Unknown,Unknown,Unknown
198924,Paris | Rue Beaurepaire 31,48.87119,2.364206,31 Rue Beaurepaire 75010 Paris,,,,,7.0,,Unknown,Unknown,Unknown,Unknown
198689,Paris | Rue Claude Bernard 16,48.839775,2.3476574,16 Rue Claude Bernard 75005 Paris,,,,,7.0,,Unknown,Unknown,Unknown,Unknown
198769,Paris | Rue de Rennes 105,48.84896,2.328735,105 Rue de Rennes 75006 Paris,,,,,7.0,,Unknown,Unknown,Unknown,Unknown
198814,Paris | Avenue Ledru Rollin 155,48.855328,2.378338,930 Avenue Ledru Rollin 75011 Paris,,,,,7.0,,Unknown,Unknown,Unknown,Unknown
6927,Parking Marché Saint-Honoré,48.867521,2.3317144999999755,"39, Place du Marché Saint-Honoré",Paris,, 75001,,0.0,,Unknown,Unknown,Unknown,Unknown
198685,Paris | Rue Monge 112,48.839275,2.3507414,112 Rue Monge 75005 Paris,,,,,7.0,,Unknown,Unknown,Unknown,Unknown
198943,Paris | Rue du conservatoire 13,48.87359,2.3466527,13 Rue du conservatoire 75009 Paris,,,,,7.0,,Unknown,Unknown,Unknown,Unknown
198704,Paris | Rue Henri Barbusse 25,48.8415,2.338973,25 Rue Henri Barbusse 75005 Paris,,,,,7.0,,Unknown,Unknown,Unknown,Unknown
198714,Paris | Rue Michelet 6,48.842564,2.3363895,6 Rue Michelet 75006 Paris,,,,,3.0,,Unknown,Unknown,Unknown,Unknown
198906,Paris | Bis Avenue Parmentier 125,48.86908,2.371679,125 Bis Avenue Parmentier 75011 Paris,,,,,7.0,,Unknown,Unknown,Unknown,Unknown
198929,Paris | boulevard Haussmann 6,48.87232,2.338776,6 boulevard Haussmann 75009 Paris,,,,,7.0,,Unknown,Unknown,Unknown,Unknown
198933,Paris | Avenue Richerand 11,48.87237,2.366288,11 Avenue Richerand 75010 Paris,,,,,7.0,,Unknown,Unknown,Unknown,Unknown
77518,Avenue Parmentier,48.858952,2.379874,4 AVENUE PARMENTIER,Paris,Paris 9,75011,,22.0,,Unknown,Unknown,Unknown,Unknown
198849,Paris | Rue de Bellechasse 5,48.85988,2.3245049,5 Rue de Bellechasse 75007 Paris,,,,,3.0,,Unknown,Unknown,Unknown,Unknown
6929,Parking Vendôme,48.8675335,2.3292922000000544,Place Vendôme,Paris,, 75001,,0.0,,Unknown,Unknown,Unknown,Unknown
7028,Parking Sèvres-Babylone,48.8511867,2.3250289999999723,Rue Velpeau,Paris,,75007,,0.0,,Unknown,Unknown,Unknown,Unknown
198951,Paris | Rue du Faubourg Poissonnière 64,48.87517,2.348162,64 Rue du Faubourg Poissonnière 75010 Paris,,,,,7.0,,Unknown,Unknown,Unknown,Unknown
198913,Paris | Rue de la Paix 24,48.869926,2.3320835,24 Rue de la Paix 75002 Paris,,,,,7.0,,Unknown,Unknown,Unknown,Unknown
198922,Paris | Boulevard des Capucines 7,48.87063,2.33321,7 Boulevard des Capucines 75002 Paris,,,,,4.0,,Unknown,Unknown,Unknown,Unknown
6987,129 rue Fg St Martin,48.8749566,2.3588815000000523,129 Rue du Faubourg Saint-Martin,Paris,,,,0.0,,Unknown,Unknown,Unknown,Unknown
8774,Novotel Paris Gare de Lyon,48.8453558,2.3753134999999475,2 rue Hector Malot,PARIS,,75012,,0.0,,Unknown,Unknown,Unknown,Unknown
195694,PARIS - Magenta - Niveau -6,48.875442505,2.354827881,2 - 75010 PARIS,,,,,7.0,,Unknown,Unknown,Unknown,Unknown
6991,94 rue Saint Maur,48.8653543,2.3777234000000362,94 rue Saint Maur,Paris,,,,0.0,,Unknown,Unknown,Unknown,Unknown
77509,Rue Saint Maur,48.865358,2.37793880000004,94 Rue Saint-Maur,Paris,Paris 9,75011,,22.0,,Unknown,Unknown,Unknown,Unknown
